#cP2019  3 26  0  0  0.00000000      96 ORBIT IGS14 HLM  IGS
## 2046 172800.00000000   900.00000000 58568 0.0000000000000
+   32   G01G02G03G04G05G06G07G08G09G10G11G12G13G14G15G16G17
+        G18G19G20G21G22G23G24G25G26G27G28G29G30G31G32  0  0
+          0  0  0  0  0  0  0  0  0  0  0  0  0  0  0  0  0
+          0  0  0  0  0  0  0  0  0  0  0  0  0  0  0  0  0
+          0  0  0  0  0  0  0  0  0  0  0  0  0  0  0  0  0
++         2  2  2  4  2  2  2  2  2  2  2  2  2  2  2  2  2
++         2  2  2  2  2  2  2  2  2  2  2  2  2  2  2  0  0
++         0  0  0  0  0  0  0  0  0  0  0  0  0  0  0  0  0
++         0  0  0  0  0  0  0  0  0  0  0  0  0  0  0  0  0
++         0  0  0  0  0  0  0  0  0  0  0  0  0  0  0  0  0
%c G  cc GPS ccc cccc cccc cccc cccc ccccc ccccc ccccc ccccc
%c cc cc ccc ccc cccc cccc cccc cccc ccccc ccccc ccccc ccccc
%f  1.2500000  1.025000000  0.00000000000  0.000000000000000
%f  0.0000000  0.000000000  0.00000000000  0.000000000000000
%i    0    0    0    0      0      0      0      0         0
%i    0    0    0    0      0      0      0      0         0
/* FINAL ORBIT COMBINATION FROM WEIGHTED AVERAGE OF:        
/* cod emr esa gfz grg jpl mit ngs sio                      
/* REFERENCED TO IGS TIME (IGST) AND TO WEIGHTED MEAN POLE: 
/* PCV:IGS14_2045 OL/AL:FES2004  NONE     Y  ORB:CMB CLK:CMB
*  2019  3 26  8 15  0.00000000
PG01 -13202.611122  22364.128706  -4850.721672   -188.406264  4  6  2  91       
PG02  19235.115064  -9881.050232 -14702.598434   -173.057298  3  3  4  90       
PG03 -10112.732460  13209.240791 -20720.575566    187.309792  5  2  7  77       
PG04  10504.450302  24333.704443   1744.384275    139.302208  6 16 12 104       
PG05  25291.307900  -2920.309533   7807.779750      1.181448  6  7  4  71       
PG06  15776.977758   2964.616214 -21116.856254    246.287915  6  4  4  71       
PG07  -1671.771266  20785.787488  16419.751706      7.625091  6  6  5  84       
PG08  -9760.763914  13334.156552  20788.855925   -137.553852  3  5  3  88       
PG09   7462.627332  25123.366043  -4320.549657    439.308052  6  7  3  82       
PG10 -20775.198053 -11339.434799  12306.477471     88.506153  5  6  6  62       
PG11  -9211.032633  24448.561733   4903.069910   -638.346258  5  7  3  99       
PG12  11877.644031 -11745.724930 -20814.222775    256.880864  7  6  6  81       
PG13  14270.192568  -4639.570245  21800.066380    -70.287913  5  5  6  88       
PG14 -16334.191823 -12059.344283 -16908.001902    -86.935717  6  7  5  99       
PG15   8052.715263 -15827.554495  19378.117980   -321.669742  6  5  9  59       
PG16 -24901.026899   1045.288071   9609.594727    -28.050687  5  7  5  75       
PG17  14161.088202  19906.424246 -10126.517827     29.183163  8  9  5  92       
PG18 -17344.246029  19385.776522   4503.090001     38.315721  3  5  4 114       
PG19  15950.509480  12330.765122 -17536.960003   -338.017395  6  8  6  81       
PG20 -12553.885706 -14068.765830  18653.571266    523.438150  7  7  6  93       
PG21  -3451.110645 -19141.895908  18952.766398   -225.109107  6  8  6  82       
PG22 -17741.128210  11032.151797 -16125.672125   -671.624502  3  6  6  72       
PG23  -1390.466297  22147.807552 -13962.244846   -192.638631  5  7  3  66       
PG24  14660.843004 -21927.533971   -569.322121    -63.904721  6  6  6  88       
PG25  -1780.122225 -15326.870452 -21851.009506   -737.888807  3  7  6  86       
PG26 -26384.972980  -3642.563716  -1108.799736    159.213796  4  8  5  77       
PG27 -15143.165940   1596.627354  21696.653251    -94.232187  3  5  5 103       
PG28  18609.398859  13580.956653  13740.976915    766.811452  7  7  6  90       
PG29  -2072.036664 -24864.475957  -9136.514805    240.578167  8  8  8  93       
PG30   8448.066006  13788.708729  21060.410990    -75.101055  5  6  2  82       
PG31 -16946.026326  -1876.963139 -20471.574746     49.517710  7  5  6  85       
PG32 -16576.048178 -16611.970384 -12500.948905   -162.878906  5  5  6  84       
*  2019  3 26  8 30  0.00000000
PG01 -13613.919795  22528.784430  -1984.028289   -188.413285  4  6  2  65       
PG02  18405.028953  -8156.992520 -16633.879549   -173.065983  2  3  4 110       
PG03 -12396.304414  12883.997695 -19648.901544    187.310477  5  2  6  67       
PG04  10280.623312  24464.826096  -1110.226844    139.307950  7 17 12 108       
PG05  26020.289012  -2604.312625   5116.419766      1.181003  7  7  3  79       
PG06  14387.100469   4990.911514 -21715.155933    246.279732  6  4  4  63       
PG07  -2877.398065  22060.226436  14396.201165      7.618423  5  6  5  85       
PG08 -10845.595907  11177.035108  21529.145013   -137.555554  3  5  3 102       
PG09   6944.645373  24651.694230  -7060.978817    439.302604  5  7  4  95       
PG10 -19243.821574 -11375.962272  14550.164054     88.498058  5  5  5  73       
PG11  -9439.432808  23621.786650   7514.139409   -638.340387  5  7  4  90       
PG12  14103.534080 -11290.109346 -19615.185280    256.878141  7  6  5  85       
PG13  15010.901800  -2240.846430  21684.951251    -70.286542  5  5  6  61       
PG14 -16809.860058 -13876.520867 -14989.974544    -86.934470  6  8  6 102       
PG15   9330.065179 -13858.683311  20314.683981   -321.667910  5  6  9  47       
PG16 -25814.370151    724.057600   6944.137560    -28.053073  6  7  5  95       
PG17  14381.539315  20951.805083  -7472.328772     29.188585  8  9  4  71       
PG18 -17186.187664  18617.090774   7243.443401     38.318776  3  5  4 120       
PG19  16420.989035  14119.610607 -15607.235620   -338.013192  7  8  5  84       
PG20 -10329.081107 -14252.554164  19821.992680    523.438461  7  7  6  91       
PG21  -2298.413939 -20700.961873  17364.351840   -225.102096  6  8  6  91       
PG22 -19517.059316  10726.788667 -14186.842088   -671.631185  3  7  6  62       
PG23  -2380.404173  20643.062228 -15981.975893   -192.637448  5  7  3  78       
PG24  14887.601227 -21645.492549   2259.227099    -63.904939  6  6  6  84       
PG25    671.116583 -15081.900135 -22061.888189   -737.893114  3  7  6  91       
PG26 -26081.456115  -3885.123274  -3917.727858    159.222808  4  8  6  74       
PG27 -16130.540576   -653.580660  21053.202718    -94.239554  4  5  5 101       
PG28  17011.653369  13411.847360  15911.959151    766.812084  7  7  6  93       
PG29  -1502.183180 -23812.678221 -11698.209487    240.570395  8  8  9  92       
PG30   6911.189710  15601.193879  20326.928630    -75.107057  5  6  3  82       
PG31 -15546.400493  -3802.478390 -21259.818562     49.515351  7  6  6  79       
PG32 -16918.907426 -17880.294660 -10074.894226   -162.862482  4  4  6  98       
*  2019  3 26  8 45  0.00000000
PG01 -13840.041540  22436.814328    917.429706   -188.420324  4  5  3  82       
PG02  17561.795934  -6210.241495 -18264.032477   -173.074520     3  4 101       
PG03 -14554.268546  12684.268015 -18239.335401    187.311073  5  3  6  75       
PG04   9922.818862  24317.833650  -3945.726941    139.313726  8 17 13 120       
PG05  26455.823175  -2331.599449   2337.829920      1.181133  7  7  3  76       
PG06  13083.929702   7129.323116 -21938.223770    246.271579  6  5  4  69       
PG07  -3887.273804  23192.414102  12123.207260      7.611918  5  5  5  91       
PG08 -12073.531682   9027.685807  21899.474970   -137.557943  3  5  4 100       
PG09   6259.220520  23940.676759  -9679.971735    439.297036  5  6  4  96       
PG10 -17477.375533 -11484.627389  16546.598683     88.489955  5  5  5  72       
PG11  -9671.957280  22518.263558   9995.314498   -638.333967  5  7  4 109       
PG12  16200.652074 -10975.011491 -18082.659263    256.875215  7  6  5  94       
PG13  15865.245492     82.415523  21192.835405    -70.285117  6  6  6  62       
PG14 -17287.480951 -15448.799369 -12810.854830    -86.933328  6  7  6  88       
PG15  10741.489717 -11880.290453  20891.334555   -321.665959  5  7  8  63       
PG16 -26439.100574    494.787911   4161.551156    -28.055968  7  7  5  38       
PG17  14531.818960  21699.004169  -4688.447707     29.193889  8  9  4  90       
PG18 -16918.036896  17572.054987   9856.118537     38.321823  4  5  4 106       
PG19  16902.687716  15666.957799 -13412.965115   -338.009450  7  8  6  99       
PG20  -8001.367958 -14549.894638  20647.356135    523.438827  7  7  6  93       
PG21  -1316.399788 -22154.174403  15495.127685   -225.095648  6  8  6 100       
PG22 -21069.830032  10498.248648 -11999.543527   -671.637637  3  6  6  91       
PG23  -3544.892466  18998.840407 -17715.696626   -192.636018  4  6  3  84       
PG24  14970.875162 -21095.745589   5048.021797    -63.905473  6  6  6  98       
PG25   3137.327505 -14970.175291 -21900.445161   -737.897422  3  6  6  76       
PG26 -25478.189255  -4137.779659  -6659.966798    159.231850  5  7  6  96       
PG27 -17194.850842  -2760.482061  20046.265968    -94.246934  5  5  6  99       
PG28  15185.910368  13302.470413  17818.737089    766.812409  7  6  6  97       
PG29   -760.159921 -22539.836068 -14058.878385    240.562201  8  7  8  96       
PG30   5522.297720  17403.672959  19242.865991    -75.113029  5  6  3  75       
PG31 -14209.078024  -5859.067524 -21684.315228     49.512688  8  7  6  80       
PG32 -17193.192294 -18878.191243  -7476.174900   -162.846037  3  3  5  99       
EOF
